0 DMSP 5D-2 F11 DEB
1 28348U 91082BM  13281.21843164  .00006050  00000-0  21423-2 0   557
2 28348 098.6667 288.2993 0015592 043.7751 316.4667 14.34838337487432
0 DMSP 5D-2 F11 DEB
1 28348U 91082BM  13282.47363733  .00010061  00000-0  35480-2 0   561
2 28348 098.6670 289.5587 0015472 040.1930 320.0396 14.34869571487610
0 DMSP 5D-2 F11 DEB
1 28348U 91082BM  13283.24069350  .00009665  00000-0  34090-2 0   570
2 28348 098.6671 290.3284 0015418 037.9237 322.3031 14.34875476487723
0 DMSP 5D-2 F11 DEB
1 28348U 91082BM  13285.47209925  .00007797  00000-0  27523-2 0   590
2 28348 098.6669 292.5680 0015245 031.4089 328.8003 14.34907971488048
0 DMSP 5D-2 F11 DEB
1 28348U 91082BM  13287.84291080  .00011387  00000-0  40072-2 0   602
2 28348 098.6662 294.9476 0015050 024.3239 335.8653 14.34943661488384
0 DMSP 5D-2 F11 DEB
1 28348U 91082BM  13288.47046749  .00012264  00000-0  43126-2 0   611
2 28348 098.6660 295.5775 0014983 022.4271 337.7566 14.34960580488473
0 DMSP 5D-2 F11 DEB
1 28348U 91082BM  13294.46685897  .00011458  00000-0  40230-2 0   628
2 28348 098.6661 301.5955 0014512 003.6594 356.4695 14.35062480489339
